[{"OBJECT_NAME":"GAOFEN-7","OBJECT_ID":"2019-072A","EPOCH":"2026-03-09T22:50:27.042432","MEAN_MOTION":15.21321455,"ECCENTRICITY":0.00158441,"INCLINATION":97.254,"RA_OF_ASC_NODE":134.0948,"ARG_OF_PERICENTER":29.3011,"MEAN_ANOMALY":330.911,"EPHEMERIS_TYPE":0,"CLASSIFICATION_TYPE":"U","NORAD_CAT_ID":44703,"ELEMENT_SET_NO":999,"REV_AT_EPOCH":35255,"BSTAR":0.00025549913,"MEAN_MOTION_DOT":5.671e-5,"MEAN_MOTION_DDOT":0},{"OBJECT_NAME":"STARLINK-6316","OBJECT_ID":"2023-099H","EPOCH":"2026-03-09T22:00:01.999584","MEAN_MOTION":15.15306832,"ECCENTRICITY":0.00017661,"INCLINATION":43.0005,"RA_OF_ASC_NODE":247.22,"ARG_OF_PERICENTER":272.8769,"MEAN_ANOMALY":205.8226,"EPHEMERIS_TYPE":0,"CLASSIFICATION_TYPE":"U","NORAD_CAT_ID":57335,"ELEMENT_SET_NO":999,"REV_AT_EPOCH":572,"BSTAR":0.035575458,"MEAN_MOTION_DOT":0.00734675,"MEAN_MOTION_DDOT":0}]
